{
    "links": {
        "self": "http://www.neowsapp.com/rest/v1/neo/3447911?api_key=iIulBulltgU6a56xZRHN4H3l9WmuAYTsLGpBGhQ2"
    },
    "id": "3447911",
    "neo_reference_id": "3447911",
    "name": "(2009 DW)",
    "designation": "2009 DW",
    "nasa_jpl_url": "http://ssd.jpl.nasa.gov/sbdb.cgi?sstr=3447911",
    "absolute_magnitude_h": 26.0,
    "estimated_diameter": {
        "kilometers": {
            "estimated_diameter_min": 0.0167708462,
            "estimated_diameter_max": 0.0375007522
        },
        "meters": {
            "estimated_diameter_min": 16.7708462163,
            "estimated_diameter_max": 37.5007521798
        },
        "miles": {
            "estimated_diameter_min": 0.0104209175,
            "estimated_diameter_max": 0.0233018799
        },
        "feet": {
            "estimated_diameter_min": 55.0224631002,
            "estimated_diameter_max": 123.0339677816
        }
    },
    "is_potentially_hazardous_asteroid": false,
    "close_approach_data": [
        {
            "close_approach_date": "2009-02-16",
            "close_approach_date_full": "2009-Feb-16 02:06",
            "epoch_date_close_approach": 1234749960000,
            "relative_velocity": {
                "kilometers_per_second": "6.149502263",
                "kilometers_per_hour": "22138.2081466482",
                "miles_per_hour": "13755.8216120104"
            },
            "miss_distance": {
                "astronomical": "0.0249889499",
                "lunar": "9.7207015111",
                "kilometers": "3738293.678576713",
                "miles": "2322867.9790481194"
            },
            "orbiting_body": "Earth"
        }
    ],
    "orbital_data": {
        "orbit_id": "10",
        "orbit_determination_date": "2017-04-06 09:01:19",
        "first_observation_date": "2009-02-17",
        "last_observation_date": "2009-03-02",
        "data_arc_in_days": 13,
        "observations_used": 28,
        "orbit_uncertainty": "8",
        "minimum_orbit_intersection": ".0228775",
        "jupiter_tisserand_invariant": "3.806",
        "epoch_osculation": "2454884.5",
        "eccentricity": ".467886288030704",
        "semi_major_axis": "1.899372442380972",
        "inclination": "2.863663516436239",
        "ascending_node_longitude": "144.1019573017545",
        "orbital_period": "956.1226924842848",
        "perihelion_distance": "1.010682120727527",
        "perihelion_argument": "8.896407721270453",
        "aphelion_distance": "2.788062764034418",
        "perihelion_time": "2454883.063889734818",
        "mean_anomaly": ".5407252641627032",
        "mean_motion": ".3765207152071826",
        "equinox": "J2000",
        "orbit_class": {
            "orbit_class_type": "APO",
            "orbit_class_description": "Near-Earth asteroid orbits which cross the Earth’s orbit similar to that of 1862 Apollo",
            "orbit_class_range": "a (semi-major axis) > 1.0 AU; q (perihelion) < 1.017 AU"
        }
    },
    "is_sentry_object": false
}